{"type":"FeatureCollection","features":[{"type":"Feature","id":1475068,"properties":{"name":"Schlo\u00dfplatz","wikidata":"Q25203382","gender":null,"source":null,"details":null},"geometry":{"type":"MultiLineString","coordinates":[[[8.2153852,53.1381215],[8.2154752,53.1381554],[8.2155418,53.1381737],[8.215566,53.1381419],[8.2157345,53.1381885],[8.2157106,53.1382201],[8.2157769,53.1382385],[8.2157397,53.138288],[8.2157864,53.138301],[8.2158687,53.1383236],[8.2158961,53.1382872],[8.2164274,53.13825],[8.2164356,53.1382956],[8.2164985,53.1382914],[8.2165051,53.1383238],[8.216544,53.1383209],[8.2166015,53.1383167],[8.2165967,53.13829],[8.216887,53.1382694],[8.2169352,53.1382661],[8.2174228,53.1382317],[8.2174281,53.1382585],[8.2174338,53.1382873],[8.2175717,53.1382776],[8.217561,53.1382219],[8.2177955,53.1382052],[8.2178425,53.1382008],[8.2178861,53.1379816],[8.2178817,53.1379483],[8.2178559,53.137968],[8.2178194,53.1379743],[8.2177818,53.1379678],[8.2177563,53.1379531],[8.2177525,53.1379272],[8.217754,53.1379393],[8.2173543,53.1379682],[8.2173511,53.1379557],[8.2173188,53.1379581],[8.2172885,53.1379604],[8.2172912,53.1379722],[8.2162902,53.1380447],[8.2162058,53.1378864],[8.21622,53.1378791],[8.216204,53.1378493],[8.2161872,53.1378179],[8.216169,53.1378174],[8.2160508,53.1375957],[8.2160619,53.1375832],[8.2163337,53.1373546],[8.2164001,53.1372858],[8.2164109,53.1372912],[8.2164545,53.13728],[8.216492,53.1372816],[8.2165255,53.1372896],[8.2165473,53.1373081],[8.2165933,53.1373053],[8.2165845,53.1372727],[8.2165651,53.1372434],[8.2165329,53.1372192],[8.2164833,53.137208],[8.2164001,53.1372104],[8.2162593,53.1373335],[8.2161896,53.1373761],[8.2160826,53.1374204],[8.2159777,53.1374638],[8.2160211,53.1375082],[8.2160241,53.1375332],[8.2160119,53.1375664],[8.2159757,53.1375949],[8.2159241,53.137611],[8.2158697,53.1376106],[8.215803,53.1375855],[8.2156472,53.1376449],[8.2156038,53.1376039],[8.2155438,53.1376269],[8.2155884,53.137669],[8.2152561,53.1377958],[8.2152114,53.1377536],[8.2151535,53.1377765],[8.2151985,53.1378198],[8.2149903,53.1378978],[8.2149453,53.1378545],[8.2148987,53.1378746],[8.2148854,53.1378803],[8.2149619,53.137971],[8.2149475,53.1379761],[8.2149574,53.1379845],[8.2153094,53.1380978],[8.2153852,53.1381215]]]}},{"type":"Feature","id":2152513,"properties":{"name":"Wilhelm-Raabe-Stra\u00dfe","wikidata":null,"gender":null,"source":null,"details":null},"geometry":{"type":"MultiLineString","coordinates":[[[8.2001175,53.1258607],[8.200109,53.125682],[8.2001074,53.1255928],[8.2001062,53.1255361],[8.2000833,53.1254316],[8.200052,53.1253305],[8.200045,53.1253038],[8.2000227,53.1252477],[8.1999292,53.1250488],[8.1998343,53.1248688],[8.1998082,53.1248346],[8.1997577,53.1247685],[8.19974,53.1247454],[8.1996328,53.1246043],[8.1994934,53.124421],[8.1994596,53.1243775],[8.199414,53.1243186],[8.1993787,53.1242733],[8.1992787,53.124145],[8.1992209,53.1240763],[8.1991488,53.1239949],[8.1991254,53.1239658]],[[8.1991254,53.1239658],[8.1991157,53.1239527],[8.1991008,53.1239296],[8.1990347,53.1238261],[8.1989632,53.1236932],[8.1989445,53.1236279],[8.1989021,53.1234819],[8.1988741,53.1233951],[8.1988001,53.1232692]],[[8.1988001,53.1232692],[8.1987349,53.1231754],[8.1985463,53.1229232],[8.1983866,53.1227139],[8.1982815,53.1225808],[8.1981977,53.1224697],[8.1981499,53.1224063],[8.1980406,53.1223048],[8.1980206,53.1222677],[8.198032,53.1222435],[8.1980692,53.1222225],[8.1981107,53.1222171],[8.198152,53.1222203],[8.1982139,53.1222601],[8.1981627,53.1223331],[8.1981499,53.1224063]]]}},{"type":"Feature","id":3325016,"properties":{"name":"Stau","wikidata":null,"gender":null,"source":null,"details":null},"geometry":{"type":"MultiLineString","coordinates":[[[8.2198653,53.1402555],[8.2198653,53.1402926],[8.219828,53.1402926],[8.219828,53.1403017],[8.2198653,53.1403017],[8.2198652,53.1403384],[8.2197825,53.1403377],[8.2197824,53.1403734],[8.2197824,53.1403989],[8.2198615,53.1403991],[8.2198608,53.1404325],[8.2198227,53.1404322],[8.2198225,53.1404422],[8.2198606,53.1404425],[8.2198598,53.1404873],[8.2199556,53.1404876],[8.2199554,53.1405173],[8.2199553,53.1405345],[8.2197229,53.1405311],[8.2194645,53.1404972],[8.2193635,53.1404727],[8.2192868,53.1404411],[8.2192304,53.1404125],[8.2191813,53.1403762],[8.2191299,53.1403278],[8.2190982,53.1402777],[8.2190814,53.1402331],[8.2190365,53.1401022],[8.2190061,53.1399851],[8.2190748,53.1399911],[8.2190843,53.1400414],[8.2191088,53.1400637],[8.2194869,53.1401923],[8.2195233,53.1401967],[8.2195231,53.1402627],[8.2195577,53.1402843],[8.2195933,53.1402843],[8.2196184,53.1402684],[8.219668,53.1402698],[8.2197018,53.1402548],[8.2197495,53.1402551],[8.2197642,53.1402638],[8.2198315,53.140264],[8.2198458,53.1402554],[8.2198596,53.1402554],[8.2198653,53.1402555]]]}},{"type":"Feature","id":3422659,"properties":{"name":"Waffenplatz","wikidata":"Q124097865","gender":null,"source":null,"details":null},"geometry":{"type":"MultiLineString","coordinates":[[[8.2110291,53.1417344],[8.2108032,53.1420693],[8.2107858,53.1420881],[8.2107656,53.1421027],[8.2107305,53.1421087],[8.2107706,53.1421249],[8.2108438,53.1421461],[8.2111492,53.1422389],[8.2115633,53.1423632]],[[8.2115633,53.1423632],[8.2117433,53.1418681],[8.2116574,53.1418505],[8.2114158,53.1418059],[8.2112154,53.1417688],[8.2110291,53.1417344]]]}},{"type":"Feature","id":3436354,"properties":{"name":"Bahnhofsplatz","wikidata":null,"gender":null,"source":null,"details":null},"geometry":{"type":"MultiLineString","coordinates":[[[8.2215557,53.1433301],[8.2213559,53.1434299],[8.2212945,53.1434608],[8.2212385,53.1434941],[8.2211873,53.1435244],[8.2214204,53.1436386],[8.2214928,53.1436268],[8.2215882,53.1438372],[8.2214174,53.1438651],[8.2214374,53.1439095],[8.2216282,53.1438784],[8.2216362,53.1438966],[8.22166,53.1439508],[8.2218848,53.143916],[8.2218565,53.1438527],[8.2218423,53.143855],[8.2218092,53.1437811],[8.2217759,53.1437864],[8.2217466,53.1437171],[8.2217904,53.1437108],[8.22174,53.1435981],[8.2219213,53.1435689],[8.221933,53.143595],[8.2219546,53.1435915],[8.2219559,53.1435943],[8.2220267,53.1435829],[8.2220256,53.1435803],[8.2220547,53.1435757],[8.2220558,53.1435782],[8.2221334,53.1435658],[8.2221324,53.1435636],[8.2221611,53.143559],[8.222162,53.1435612],[8.2222382,53.1435489],[8.2222372,53.1435467],[8.2222591,53.1435432],[8.2222462,53.1435142],[8.2223907,53.1434908],[8.2225778,53.1434608],[8.2226161,53.1435465],[8.2227497,53.143525],[8.2228804,53.143504],[8.2228582,53.1434545],[8.2230198,53.1434285],[8.2230565,53.1435106],[8.2230773,53.143557],[8.2230819,53.1435675],[8.2231443,53.1435574],[8.22373,53.1434633],[8.2237099,53.1434184],[8.2238826,53.1433906],[8.2239302,53.1433694],[8.223876,53.1432691],[8.2237492,53.1432627],[8.2237131,53.1432609],[8.2235538,53.1432169],[8.2233756,53.1431683],[8.223251,53.1431398],[8.223044,53.1430947],[8.2229189,53.1430764],[8.2227717,53.143069],[8.222596,53.1430758],[8.2223273,53.1431213],[8.2221742,53.1431519],[8.2220512,53.1431829],[8.2217423,53.1432583],[8.2215557,53.1433301]]]}},{"type":"Feature","id":3446638,"properties":{"name":"Lappan","wikidata":null,"gender":null,"source":null,"details":null},"geometry":{"type":"MultiLineString","coordinates":[[[8.214441,53.1425977],[8.2143854,53.1426759],[8.214302,53.1428946],[8.214261,53.1430446],[8.2142368,53.143153],[8.2142233,53.1432071],[8.2142095,53.1432287],[8.2141815,53.1432447],[8.2141396,53.1432534],[8.2138899,53.1432398],[8.213778,53.1432355],[8.2137269,53.1432341],[8.2136896,53.1432302],[8.2138331,53.1430767],[8.2138416,53.1430677],[8.2139097,53.1429951],[8.2139212,53.1429785],[8.2139331,53.1429531],[8.2139528,53.1429156],[8.2139917,53.1429229],[8.2140325,53.1428782],[8.2141149,53.1427927],[8.2141883,53.142708],[8.2141614,53.142698],[8.2142528,53.1426085],[8.2142842,53.1425617],[8.2143152,53.1425044],[8.214371,53.142436],[8.2144528,53.1424519],[8.2145105,53.1423684],[8.2145198,53.1423571],[8.2145422,53.1423509],[8.2145962,53.1423669],[8.2146082,53.1423898],[8.2145054,53.1425095],[8.214441,53.1425977]]]}},{"type":"Feature","id":19549387,"properties":{"name":"Bloherfelder Marktplatz","wikidata":null,"gender":null,"source":null,"details":null},"geometry":{"type":"MultiLineString","coordinates":[[[8.1635874,53.1415298],[8.1636744,53.1415293],[8.1637526,53.1415246],[8.1638979,53.1415159],[8.1640518,53.1415093],[8.1640724,53.1415089],[8.1642336,53.1415029],[8.1642942,53.1414993],[8.1642871,53.1414336],[8.1642775,53.1413682],[8.1642284,53.1413704],[8.1641728,53.1411295],[8.164188,53.1411281],[8.1641756,53.1410753],[8.1641624,53.1410277],[8.1641592,53.141017],[8.1641521,53.1409926],[8.1641647,53.1409916],[8.1641543,53.1409442],[8.1641865,53.1409417],[8.1641831,53.1409263],[8.1641797,53.1409105],[8.1641754,53.1408988],[8.1641522,53.1408935],[8.164146,53.1408913],[8.1641364,53.140889],[8.1641286,53.1408876],[8.1641212,53.1408865],[8.1641138,53.1408858],[8.1641076,53.1408853],[8.1641,53.140885],[8.164093,53.1408845],[8.1640845,53.1408847],[8.1640766,53.1408851],[8.16407,53.1408859],[8.1640633,53.140887],[8.1640587,53.1408881],[8.1640519,53.1408903],[8.1640149,53.1408873],[8.1639575,53.1408802],[8.1636675,53.140809],[8.1636521,53.1408374],[8.1636418,53.1408599],[8.163691,53.1409301],[8.1636681,53.1409406],[8.163621,53.1409139],[8.1635854,53.1409052],[8.1635624,53.1409035],[8.1635402,53.1409044],[8.1635093,53.1409092],[8.1634862,53.1409159],[8.1634682,53.1409235],[8.1634558,53.1409299],[8.163437,53.1409407],[8.1634224,53.1409537],[8.1634138,53.1409643],[8.1634077,53.1409762],[8.1634054,53.1409859],[8.1634052,53.1409979],[8.1634063,53.141009],[8.1634082,53.1410183],[8.1634129,53.1410259],[8.1634225,53.1410369],[8.1634302,53.1410445],[8.1634417,53.1410524],[8.1634513,53.1410581],[8.1634655,53.1410646],[8.163485,53.1410706],[8.1635058,53.1410755],[8.1635191,53.1410776],[8.1635385,53.1410794],[8.1635577,53.1410805],[8.163579,53.1410837],[8.1635945,53.1410887],[8.1636121,53.1410954],[8.1636294,53.1411072],[8.163642,53.1411178],[8.1636493,53.1411301],[8.1636543,53.1411456],[8.1636514,53.1411616],[8.1636427,53.1411803],[8.1636301,53.1411948],[8.1636161,53.1412113],[8.1635912,53.1412305],[8.1635829,53.1412449],[8.1635812,53.1412594],[8.1635892,53.1412819],[8.1636107,53.141303],[8.1636221,53.1413224],[8.1636316,53.1413479],[8.1636376,53.1413611],[8.1636385,53.1413739],[8.1636389,53.1413872],[8.1636359,53.1414013],[8.163626,53.1414147],[8.1636113,53.1414311],[8.1635987,53.1414438],[8.1635771,53.1414627],[8.1635874,53.1415298]]]}}]}